{
  "norad_id": 61888,
  "name": "STARLINK-32377",
  "history": [
    {
      "epoch": "2026-03-28T14:14:08.520288Z",
      "apogee_km": 476.25912208222144,
      "perigee_km": 474.21270493024895,
      "latitude_deg": -1.2225389220246193e-05,
      "longitude_deg": -0.4090855424453008,
      "height_km": 476.39688088242076,
      "semi_major_axis_km": 6853.372913506235,
      "eccentricity": 0.0001493,
      "inclination_deg": 53.1619,
      "raan_deg": 39.1378,
      "arg_perigee_deg": 104.8903,
      "mean_anomaly_deg": 255.2263,
      "mean_motion_rev_day": 15.30193019
    },
    {
      "epoch": "2026-03-29T02:46:33.894912Z",
      "apogee_km": 476.2333717890233,
      "perigee_km": 474.22533544741236,
      "latitude_deg": -4.9314239411545374e-05,
      "longitude_deg": 168.54314394475074,
      "height_km": 476.37227492726646,
      "semi_major_axis_km": 6853.3663536182175,
      "eccentricity": 0.0001465,
      "inclination_deg": 53.1617,
      "raan_deg": 36.7108,
      "arg_perigee_deg": 104.1163,
      "mean_anomaly_deg": 256.0,
      "mean_motion_rev_day": 15.30195216
    },
    {
      "epoch": "2026-03-30T02:17:22.653312Z",
      "apogee_km": 476.1085241387791,
      "perigee_km": 474.4266986471439,
      "latitude_deg": 2.0684357088847607e-05,
      "longitude_deg": 170.32316971290396,
      "height_km": 476.4408042558386,
      "semi_major_axis_km": 6853.404611392962,
      "eccentricity": 0.0001227,
      "inclination_deg": 53.1644,
      "raan_deg": 32.1596,
      "arg_perigee_deg": 109.053,
      "mean_anomaly_deg": 251.0604,
      "mean_motion_rev_day": 15.30182403
    },
    {
      "epoch": "2026-03-30T13:15:45.748512Z",
      "apogee_km": 476.38077954021446,
      "perigee_km": 474.2452445164672,
      "latitude_deg": 2.8211386338482708e-05,
      "longitude_deg": 3.152497382717909,
      "height_km": 476.68832987477043,
      "semi_major_axis_km": 6853.450012028341,
      "eccentricity": 0.0001558,
      "inclination_deg": 53.1657,
      "raan_deg": 30.0358,
      "arg_perigee_deg": 116.5235,
      "mean_anomaly_deg": 243.5926,
      "mean_motion_rev_day": 15.30167198
    }
  ]
}